*******************************************************************************
Ephemeris / WWW_USER Mon Mar 24 09:07:15 2025 Pasadena, USA      / Horizons    
*******************************************************************************
Target body name: Lemmon (C/2018 EF9)             {source: JPL#18}
Center body name: Earth (399)                     {source: DE441}
Center-site name: Mauna Kea
*******************************************************************************
Start time      : A.D. 2018-Nov-15 03:52:00.0000 UT      
Stop  time      : A.D. 2018-Nov-15 16:20:00.0000 UT      
Step-size       : 1 minutes
*******************************************************************************
Target pole/equ : undefined
Target radii    : undefined                                                    
Center geodetic : 204.5278, 19.8260847, 4.21024   {E-lon(deg),Lat(deg),Alt(km)}
Center cylindric: 204.5278, 6006.35451, 2151.0229 {E-lon(deg),Dxy(km),Dz(km)}
Center pole/equ : ITRF93                          {East-longitude positive}
Center radii    : 6378.137, 6378.137, 6356.752 km {Equator_a, b, pole_c}       
Target primary  : Sun
Vis. interferer : MOON (R_eq= 1737.400) km        {source: DE441}
Rel. light bend : Sun                             {source: DE441}
Rel. lght bnd GM: 1.3271E+11 km^3/s^2                                          
Small-body perts: Yes                             {source: SB441-N16}
Atmos refraction: NO (AIRLESS)
RA format       : HMS
Time format     : CAL 
Calendar mode   : Mixed Julian/Gregorian
RTS-only print  : NO       
EOP file        : eop.250321.p250617                                           
EOP coverage    : DATA-BASED 1962-JAN-20 TO 2025-MAR-21. PREDICTS-> 2025-JUN-16
Units conversion: 1 au= 149597870.700 km, c= 299792.458 km/s, 1 day= 86400.0 s 
Table cut-offs 1: Elevation (-90.0deg=NO ),Airmass (>38.000=NO), Daylight (YES)
Table cut-offs 2: Solar elongation (  0.0,180.0=NO ),Local Hour Angle( 0.0=NO )
Table cut-offs 3: RA/DEC angular rate (     0.0=NO )                           
*******************************************************************************
Initial IAU76/J2000 heliocentric ecliptic osculating elements (au, days, deg.):
  EPOCH=  2458226.5 ! 2018-Apr-18.0000000 (TDB)    RMSW= n.a.                  
   EC= .9975741722198472   QR= 1.55663257903246    TP= 2458261.6283815675      
   OM= 172.5780664128357   W= 72.61657512148747    IN= 84.69445280104227       
  Equivalent ICRF heliocentric cartesian coordinates (au, au/d):
   X=-1.091857230976521E+00  Y=-4.544188696153424E-01  Z= 1.120998862172552E+00
  VX= 1.630642470498751E-02 VY=-6.481787118028984E-03 VZ= 7.403953065693920E-03
Comet physical (GM= km^3/s^2; RAD= km):                                        
   GM= n.a.                RAD= n.a.                                           
   M1=  8.6      M2=  17.8     k1=  45.25  k2=  5.      PHCOF=  .030           
*******************************************************************************
 Date__(UT)__HR:MN     R.A._________(ICRF)_________DEC
******************************************************
$$SOE
 2018-Nov-15 10:07     21 19 31.207211 +13 10 39.59172
 2018-Nov-15 10:08     21 19 31.251459 +13 10 38.69017
 2018-Nov-15 10:09     21 19 31.295713 +13 10 37.78864
 2018-Nov-15 10:10     21 19 31.339970 +13 10 36.88713
 2018-Nov-15 10:11     21 19 31.384232 +13 10 35.98563
 2018-Nov-15 10:12     21 19 31.428499 +13 10 35.08414
 2018-Nov-15 10:13     21 19 31.472770 +13 10 34.18267
 2018-Nov-15 10:14     21 19 31.517045 +13 10 33.28122
 2018-Nov-15 10:15     21 19 31.561325 +13 10 32.37978
 2018-Nov-15 10:16     21 19 31.605609 +13 10 31.47835
 2018-Nov-15 10:17     21 19 31.649897 +13 10 30.57695
 2018-Nov-15 10:18     21 19 31.694190 +13 10 29.67555
 2018-Nov-15 10:19     21 19 31.738487 +13 10 28.77418
 2018-Nov-15 10:20     21 19 31.782789 +13 10 27.87282
 2018-Nov-15 10:21     21 19 31.827095 +13 10 26.97147
 2018-Nov-15 10:22     21 19 31.871406 +13 10 26.07014
 2018-Nov-15 10:23     21 19 31.915720 +13 10 25.16883
 2018-Nov-15 10:24     21 19 31.960040 +13 10 24.26753
 2018-Nov-15 10:25     21 19 32.004363 +13 10 23.36625
 2018-Nov-15 10:26     21 19 32.048691 +13 10 22.46498
 2018-Nov-15 10:27     21 19 32.093024 +13 10 21.56373
 2018-Nov-15 10:28     21 19 32.137360 +13 10 20.66250
 2018-Nov-15 10:29     21 19 32.181702 +13 10 19.76128
 2018-Nov-15 10:30     21 19 32.226047 +13 10 18.86008
 2018-Nov-15 10:31     21 19 32.270397 +13 10 17.95889
 2018-Nov-15 10:32     21 19 32.314751 +13 10 17.05773
 2018-Nov-15 10:33     21 19 32.359110 +13 10 16.15657
 2018-Nov-15 10:34     21 19 32.403473 +13 10 15.25544
 2018-Nov-15 10:35     21 19 32.447841 +13 10 14.35432
 2018-Nov-15 10:36  s  21 19 32.492212 +13 10 13.45322
 2018-Nov-15 10:37     21 19 32.536588 +13 10 12.55213
 2018-Nov-15 10:38     21 19 32.580969 +13 10 11.65106
 2018-Nov-15 10:39     21 19 32.625354 +13 10 10.75001
 2018-Nov-15 10:40     21 19 32.669743 +13 10 09.84898
 2018-Nov-15 10:41     21 19 32.714137 +13 10 08.94796
 2018-Nov-15 10:42     21 19 32.758534 +13 10 08.04696
 2018-Nov-15 10:43     21 19 32.802937 +13 10 07.14597
 2018-Nov-15 10:44     21 19 32.847343 +13 10 06.24501
 2018-Nov-15 10:45     21 19 32.891754 +13 10 05.34406
 2018-Nov-15 10:46     21 19 32.936169 +13 10 04.44312
 2018-Nov-15 10:47     21 19 32.980589 +13 10 03.54221
 2018-Nov-15 10:48     21 19 33.025013 +13 10 02.64131
 2018-Nov-15 10:49     21 19 33.069441 +13 10 01.74043
 2018-Nov-15 10:50     21 19 33.113874 +13 10 00.83957
 2018-Nov-15 10:51     21 19 33.158311 +13 09 59.93872
 2018-Nov-15 10:52     21 19 33.202752 +13 09 59.03790
 2018-Nov-15 10:53     21 19 33.247197 +13 09 58.13709
 2018-Nov-15 10:54     21 19 33.291647 +13 09 57.23629
 2018-Nov-15 10:55     21 19 33.336101 +13 09 56.33552
 2018-Nov-15 10:56     21 19 33.380560 +13 09 55.43476
 2018-Nov-15 10:57     21 19 33.425022 +13 09 54.53403
 2018-Nov-15 10:58     21 19 33.469489 +13 09 53.63331
 2018-Nov-15 10:59     21 19 33.513961 +13 09 52.73260
 2018-Nov-15 11:00     21 19 33.558436 +13 09 51.83192
 2018-Nov-15 11:01     21 19 33.602916 +13 09 50.93125
 2018-Nov-15 11:02     21 19 33.647400 +13 09 50.03061
 2018-Nov-15 11:03     21 19 33.691888 +13 09 49.12998
 2018-Nov-15 11:04     21 19 33.736381 +13 09 48.22937
 2018-Nov-15 11:05     21 19 33.780878 +13 09 47.32877
 2018-Nov-15 11:06     21 19 33.825379 +13 09 46.42820
 2018-Nov-15 11:07     21 19 33.869884 +13 09 45.52765
 2018-Nov-15 11:08     21 19 33.914394 +13 09 44.62711
 2018-Nov-15 11:09     21 19 33.958908 +13 09 43.72659
 2018-Nov-15 11:10     21 19 34.003426 +13 09 42.82609
 2018-Nov-15 11:11     21 19 34.047948 +13 09 41.92561
 2018-Nov-15 11:12     21 19 34.092475 +13 09 41.02515
 2018-Nov-15 11:13     21 19 34.137005 +13 09 40.12471
 2018-Nov-15 11:14     21 19 34.181540 +13 09 39.22428
 2018-Nov-15 11:15     21 19 34.226080 +13 09 38.32388
 2018-Nov-15 11:16     21 19 34.270623 +13 09 37.42349
 2018-Nov-15 11:17     21 19 34.315170 +13 09 36.52313
 2018-Nov-15 11:18     21 19 34.359722 +13 09 35.62278
 2018-Nov-15 11:19     21 19 34.404278 +13 09 34.72245
 2018-Nov-15 11:20     21 19 34.448838 +13 09 33.82214
 2018-Nov-15 11:21     21 19 34.493402 +13 09 32.92185
 2018-Nov-15 11:22     21 19 34.537971 +13 09 32.02158
 2018-Nov-15 11:23     21 19 34.582543 +13 09 31.12133
 2018-Nov-15 11:24     21 19 34.627120 +13 09 30.22110
 2018-Nov-15 11:25     21 19 34.671701 +13 09 29.32089
 2018-Nov-15 11:26     21 19 34.716286 +13 09 28.42070
 2018-Nov-15 11:27     21 19 34.760875 +13 09 27.52053
 2018-Nov-15 11:28     21 19 34.805468 +13 09 26.62038
 2018-Nov-15 11:29     21 19 34.850065 +13 09 25.72025
 2018-Nov-15 11:30     21 19 34.894667 +13 09 24.82014
 2018-Nov-15 11:31     21 19 34.939272 +13 09 23.92004
 2018-Nov-15 11:32     21 19 34.983882 +13 09 23.01997
 2018-Nov-15 11:33     21 19 35.028496 +13 09 22.11992
 2018-Nov-15 11:34     21 19 35.073113 +13 09 21.21989
 2018-Nov-15 11:35     21 19 35.117735 +13 09 20.31988
 2018-Nov-15 11:36     21 19 35.162361 +13 09 19.41989
 2018-Nov-15 11:37     21 19 35.206991 +13 09 18.51992
 2018-Nov-15 11:38     21 19 35.251625 +13 09 17.61997
 2018-Nov-15 11:39     21 19 35.296263 +13 09 16.72004
 2018-Nov-15 11:40     21 19 35.340905 +13 09 15.82013
 2018-Nov-15 11:41     21 19 35.385551 +13 09 14.92024
 2018-Nov-15 11:42     21 19 35.430202 +13 09 14.02037
 2018-Nov-15 11:43     21 19 35.474856 +13 09 13.12052
 2018-Nov-15 11:44     21 19 35.519514 +13 09 12.22070
 2018-Nov-15 11:45     21 19 35.564176 +13 09 11.32089
 2018-Nov-15 11:46     21 19 35.608842 +13 09 10.42110
 2018-Nov-15 11:47     21 19 35.653512 +13 09 09.52134
 2018-Nov-15 11:48     21 19 35.698186 +13 09 08.62160
 2018-Nov-15 11:49     21 19 35.742865 +13 09 07.72188
 2018-Nov-15 11:50     21 19 35.787547 +13 09 06.82217
 2018-Nov-15 11:51     21 19 35.832232 +13 09 05.92249
 2018-Nov-15 11:52     21 19 35.876922 +13 09 05.02284
 2018-Nov-15 11:53     21 19 35.921616 +13 09 04.12320
 2018-Nov-15 11:54     21 19 35.966314 +13 09 03.22358
 2018-Nov-15 11:55     21 19 36.011016 +13 09 02.32399
 2018-Nov-15 11:56     21 19 36.055721 +13 09 01.42441
 2018-Nov-15 11:57     21 19 36.100431 +13 09 00.52486
 2018-Nov-15 11:58     21 19 36.145144 +13 08 59.62533
 2018-Nov-15 11:59     21 19 36.189861 +13 08 58.72582
 2018-Nov-15 12:00     21 19 36.234582 +13 08 57.82634
 2018-Nov-15 12:01     21 19 36.279307 +13 08 56.92687
 2018-Nov-15 12:02     21 19 36.324036 +13 08 56.02743
 2018-Nov-15 12:03     21 19 36.368769 +13 08 55.12800
 2018-Nov-15 12:04     21 19 36.413505 +13 08 54.22860
 2018-Nov-15 12:05     21 19 36.458245 +13 08 53.32923
 2018-Nov-15 12:06     21 19 36.502989 +13 08 52.42987
 2018-Nov-15 12:07     21 19 36.547737 +13 08 51.53054
 2018-Nov-15 12:08     21 19 36.592489 +13 08 50.63122
 2018-Nov-15 12:09     21 19 36.637244 +13 08 49.73193
 2018-Nov-15 12:10     21 19 36.682003 +13 08 48.83267
 2018-Nov-15 12:11     21 19 36.726766 +13 08 47.93342
